OBJECT_NAME,OBJECT_ID,EPOCH,MEAN_MOTION,ECCENTRICITY,INCLINATION,RA_OF_ASC_NODE,ARG_OF_PERICENTER,MEAN_ANOMALY,EPHEMERIS_TYPE,CLASSIFICATION_TYPE,NORAD_CAT_ID,ELEMENT_SET_NO,REV_AT_EPOCH,BSTAR,MEAN_MOTION_DOT,MEAN_MOTION_DDOT
TRACERS 1,2025-154B,2026-07-14T04:11:21.240096,14.93544266,.000612,97.6677,258.1614,153.9308,206.2221,0,U,64870,999,5302,.8263E-4,.815E-5,0
ATHENA EPIC,2025-154C,2026-07-14T02:58:53.090112,14.94194201,.000755,97.6660,258.2912,145.4273,214.7440,0,U,64871,999,5303,.12669E-3,.1302E-4,0
SKYCRAFT-4B,2025-154D,2026-07-14T03:54:28.772064,14.97921841,.0005378,97.6647,259.2949,158.7335,201.4111,0,U,64872,999,5308,.27109E-3,.3137E-4,0
TRACERS 2,2025-154E,2026-07-14T04:10:41.725920,14.93553257,.0003549,97.6679,258.1734,185.1954,174.9229,0,U,64873,999,5302,.77585E-4,.762E-5,0
PEXT (BARD),2025-154F,2026-07-14T03:42:28.654848,15.20601251,.0003147,97.3953,259.6591,159.6312,200.5050,0,U,64874,999,5394,.80582E-4,.1698E-4,0
REAL,2025-154G,2026-07-14T04:13:28.710336,15.33879634,.0001893,97.4024,263.5476,122.4634,237.6792,0,U,64875,999,5418,.41382E-3,.13491E-3,0
IONOSFERA-M 3,2025-155A,2026-07-14T04:54:43.221024,14.21490729,.0002261,98.6039,156.4318,113.9258,246.2157,0,U,64876,999,5024,.22568E-4,.6E-7,0
IONOSFERA-M 4,2025-155B,2026-07-14T04:03:27.963360,14.21493158,.0001811,98.6038,156.3142,100.8276,259.3105,0,U,64877,999,5023,.22073E-4,.5E-7,0
INNOSAT 16 (RS92S7),2025-155C,2026-07-14T03:45:12.287808,15.25731820,.001248,97.4579,162.2060,91.6053,268.6615,0,U,64878,999,8478,.12501E-3,.3121E-4,0
GEOSCAN 6 (RS92S6),2025-155D,2026-07-14T04:26:52.511136,15.30642181,.0009978,97.4568,163.8536,84.9881,275.2498,0,U,64879,999,8489,.20779E-3,.6085E-4,0
GEOSCAN 1 (RS92S1),2025-155E,2026-07-14T04:14:36.270816,15.31289075,.0009925,97.4565,164.0175,85.2823,274.9551,0,U,64880,999,8490,.21783E-3,.6513E-4,0
239ALFEROV (RS61S),2025-155F,2026-07-14T04:07:09.931872,15.33652078,.0009609,97.4563,164.6677,85.0084,275.2255,0,U,64881,999,8494,.2655E-3,.857E-4,0
2025-155G,2025-155G,2026-07-14T04:15:09.725760,15.29953400,.0009432,97.4593,163.8008,86.0160,274.2159,0,U,64882,999,8488,.18757E-3,.5368E-4,0
2025-155H,2025-155H,2026-07-14T04:15:06.374304,15.30025163,.0009204,97.4584,163.7739,83.3574,276.8713,0,U,64883,999,8488,.19335E-3,.5547E-4,0
2025-155J,2025-155J,2026-07-14T04:14:30.952032,15.29955649,.0009706,97.4580,163.7645,77.1082,283.1242,0,U,64884,999,8488,.18782E-3,.5376E-4,0
2025-155K,2025-155K,2026-07-14T03:50:50.654400,15.41224255,.0009937,97.4517,166.2974,79.2940,280.9425,0,U,64885,999,8506,.38424E-3,.15914E-3,0
2025-155L,2025-155L,2026-07-14T04:07:33.017088,15.43336819,.0009198,97.4468,166.6602,78.9270,281.3012,0,U,64886,999,8509,.45367E-3,.20188E-3,0
2025-155M,2025-155M,2026-07-14T03:43:28.530912,15.39651361,.0009456,97.4508,165.8908,77.1776,283.0525,0,U,64887,999,8503,.43898E-3,.17274E-3,0
2025-155N,2025-155N,2026-07-14T03:47:13.164000,15.43442527,.0009061,97.4476,166.7128,77.9757,282.2505,0,U,64888,999,8509,.47688E-3,.21303E-3,0
2025-155P,2025-155P,2026-07-14T03:26:09.022272,15.26745301,.0009235,97.4607,162.9606,85.0510,275.1782,0,U,64889,999,8482,.11626E-3,.2985E-4,0
GEOSCAN 2 (RS92S2),2025-155Q,2026-07-14T03:58:49.719072,15.31546760,.000908,97.4564,164.1694,75.4410,284.7838,0,U,64890,999,8491,.21026E-3,.6333E-4,0
GEOSCAN 5 (RS92S5),2025-155R,2026-07-14T05:17:22.261920,15.33959543,.000865,97.4557,164.8647,89.2424,270.9810,0,U,64891,999,8496,.26562E-3,.8656E-4,0
GEOSCAN 4 (RS92S4),2025-155S,2026-07-14T03:16:37.057728,15.34125733,.0008586,97.4560,164.8365,89.7180,270.5047,0,U,64892,999,8495,.28569E-3,.9366E-4,0
GEOSCAN 3 (RS92S3),2025-155T,2026-07-14T03:59:12.681600,15.36285872,.000863,97.4546,165.3772,90.0031,270.2202,0,U,64893,999,8499,.31182E-3,.10964E-3,0
INNOSAT 3 (RS92S0),2025-155U,2026-07-14T04:39:40.392864,15.45766831,.0008296,97.4491,167.3776,93.2736,266.9462,0,U,64894,999,8513,.53048E-3,.25661E-3,0
2025-155V,2025-155V,2026-07-14T04:14:46.115232,15.29960815,.000935,97.4589,163.7820,85.4678,274.7630,0,U,64895,999,8487,.18502E-3,.5295E-4,0
SKYCRAFT-4C,2025-154H,2026-07-14T04:24:00.841248,14.95386847,.0006035,97.6678,258.7277,156.3158,203.8342,0,U,64896,999,20318,.13965E-3,.1486E-4,0
SKYCRAFT-4A,2025-154J,2026-07-14T04:09:38.030112,14.97033533,.0006122,97.6689,259.0893,162.4656,197.6778,0,U,64897,999,5142,.30704E-3,.348E-4,0
SKYKRAFT-4D,2025-154K,2026-07-14T04:36:23.700672,14.96501400,.000573,97.6668,258.8090,147.3872,212.7704,0,U,64898,999,5133,.28775E-3,.3213E-4,0
MICROCARB,2025-156A,2026-07-14T04:36:08.462304,14.72884450,.0017545,98.0075,271.9080,173.9140,186.2285,0,U,64899,999,5194,.49194E-4,.265E-5,0
