TRACERS 1               
1 64870U 25154B   26195.17455139  .00000815  00000+0  82630-4 0  9996
2 64870  97.6677 258.1614 0006120 153.9308 206.2221 14.93544266 53023
ATHENA EPIC             
1 64871U 25154C   26195.12422558  .00001302  00000+0  12669-3 0  9997
2 64871  97.6660 258.2912 0007550 145.4273 214.7440 14.94194201 53032
SKYCRAFT-4B             
1 64872U 25154D   26195.16283301  .00003137  00000+0  27109-3 0  9996
2 64872  97.6647 259.2949 0005378 158.7335 201.4111 14.97921841 53085
TRACERS 2               
1 64873U 25154E   26195.17409405  .00000762  00000+0  77585-4 0  9998
2 64873  97.6679 258.1734 0003549 185.1954 174.9229 14.93553257 53026
PEXT (BARD)             
1 64874U 25154F   26195.15449832  .00001698  00000+0  80582-4 0  9995
2 64874  97.3953 259.6591 0003147 159.6312 200.5050 15.20601251 53942
REAL                    
1 64875U 25154G   26195.17602674  .00013491  00000+0  41382-3 0  9991
2 64875  97.4024 263.5476 0001893 122.4634 237.6792 15.33879634 54187
IONOSFERA-M 3           
1 64876U 25155A   26195.20466691  .00000006  00000+0  22568-4 0  9998
2 64876  98.6039 156.4318 0002261 113.9258 246.2157 14.21490729 50243
IONOSFERA-M 4           
1 64877U 25155B   26195.16907365  .00000005  00000+0  22073-4 0  9992
2 64877  98.6038 156.3142 0001811 100.8276 259.3105 14.21493158 50238
INNOSAT 16 (RS92S7)     
1 64878U 25155C   26195.15639222  .00003121  00000+0  12501-3 0  9992
2 64878  97.4579 162.2060 0012480  91.6053 268.6615 15.25731820 84787
GEOSCAN 6 (RS92S6)      
1 64879U 25155D   26195.18532999  .00006085  00000+0  20779-3 0  9997
2 64879  97.4568 163.8536 0009978  84.9881 275.2498 15.30642181 84895
GEOSCAN 1 (RS92S1)      
1 64880U 25155E   26195.17680869  .00006513  00000+0  21783-3 0  9990
2 64880  97.4565 164.0175 0009925  85.2823 274.9551 15.31289075 84906
239ALFEROV (RS61S)      
1 64881U 25155F   26195.17164273  .00008570  00000+0  26550-3 0  9999
2 64881  97.4563 164.6677 0009609  85.0084 275.2255 15.33652078 84942
2025-155G               
1 64882U 25155G   26195.17719590  .00005368  00000+0  18757-3 0  9990
2 64882  97.4593 163.8008 0009432  86.0160 274.2159 15.29953400 84888
2025-155H               
1 64883U 25155H   26195.17715711  .00005547  00000+0  19335-3 0  9994
2 64883  97.4584 163.7739 0009204  83.3574 276.8713 15.30025163 84887
2025-155J               
1 64884U 25155J   26195.17674713  .00005376  00000+0  18782-3 0  9996
2 64884  97.4580 163.7645 0009706  77.1082 283.1242 15.29955649 84889
2025-155K               
1 64885U 25155K   26195.16030850  .00015914  00000+0  38424-3 0  9998
2 64885  97.4517 166.2974 0009937  79.2940 280.9425 15.41224255 85060
2025-155L               
1 64886U 25155L   26195.17190992  .00020188  00000+0  45367-3 0  9997
2 64886  97.4468 166.6602 0009198  78.9270 281.3012 15.43336819 85091
2025-155M               
1 64887U 25155M   26195.15519133  .00017274  00000+0  43898-3 0  9997
2 64887  97.4508 165.8908 0009456  77.1776 283.0525 15.39651361 85035
2025-155N               
1 64888U 25155N   26195.15779125  .00021303  00000+0  47688-3 0  9996
2 64888  97.4476 166.7128 0009061  77.9757 282.2505 15.43442527 85095
2025-155P               
1 64889U 25155P   26195.14315998  .00002985  00000+0  11626-3 0  9998
2 64889  97.4607 162.9606 0009235  85.0510 275.1782 15.26745301 84826
GEOSCAN 2 (RS92S2)      
1 64890U 25155Q   26195.16585323  .00006333  00000+0  21026-3 0  9999
2 64890  97.4564 164.1694 0009080  75.4410 284.7838 15.31546760 84913
GEOSCAN 5 (RS92S5)      
1 64891U 25155R   26195.22039655  .00008656  00000+0  26562-3 0  9999
2 64891  97.4557 164.8647 0008650  89.2424 270.9810 15.33959543 84962
GEOSCAN 4 (RS92S4)      
1 64892U 25155S   26195.13654002  .00009366  00000+0  28569-3 0  9997
2 64892  97.4560 164.8365 0008586  89.7180 270.5047 15.34125733 84950
GEOSCAN 3 (RS92S3)      
1 64893U 25155T   26195.16611900  .00010964  00000+0  31182-3 0  9992
2 64893  97.4546 165.3772 0008630  90.0031 270.2202 15.36285872 84990
INNOSAT 3 (RS92S0)      
1 64894U 25155U   26195.19421751  .00025661  00000+0  53048-3 0  9994
2 64894  97.4491 167.3776 0008296  93.2736 266.9462 15.45766831 85137
2025-155V               
1 64895U 25155V   26195.17692263  .00005295  00000+0  18502-3 0  9998
2 64895  97.4589 163.7820 0009350  85.4678 274.7630 15.29960815 84870
SKYCRAFT-4C             
1 64896U 25154H   26195.18334307  .00001486  00000+0  13965-3 0  9997
2 64896  97.6678 258.7277 0006035 156.3158 203.8342 14.95386847203180
SKYCRAFT-4A             
1 64897U 25154J   26195.17335683  .00003480  00000+0  30704-3 0  9991
2 64897  97.6689 259.0893 0006122 162.4656 197.6778 14.97033533 51423
SKYKRAFT-4D             
1 64898U 25154K   26195.19194098  .00003213  00000+0  28775-3 0  9996
2 64898  97.6668 258.8090 0005730 147.3872 212.7704 14.96501400 51333
MICROCARB               
1 64899U 25156A   26195.19176461  .00000265  00000+0  49194-4 0  9996
2 64899  98.0075 271.9080 0017545 173.9140 186.2285 14.72884450 51945
